STARLINK-2699
1 28433C 21040F   21325.14078488 -.00020352  00000-0 -13640-2 0  3255
2 28433  53.0531 357.5910 0001745  47.7989 335.0464 15.06408378    10
